[{"OBJECT_NAME":"TRANSPORTER-12 OBJECT BT","OBJECT_ID":"2025-009BT","EPOCH":"2026-03-09T17:08:24.281088","MEAN_MOTION":15.27872239,"ECCENTRICITY":0.00036816,"INCLINATION":97.4094,"RA_OF_ASC_NODE":151.5992,"ARG_OF_PERICENTER":313.5044,"MEAN_ANOMALY":46.5889,"EPHEMERIS_TYPE":0,"CLASSIFICATION_TYPE":"U","NORAD_CAT_ID":62674,"ELEMENT_SET_NO":999,"REV_AT_EPOCH":12136,"BSTAR":0.000510288,"MEAN_MOTION_DOT":0.00013824,"MEAN_MOTION_DDOT":0},{"OBJECT_NAME":"STARLINK-33669","OBJECT_ID":"2025-053U","EPOCH":"2026-03-09T12:42:22.529088","MEAN_MOTION":15.27572833,"ECCENTRICITY":6.956e-5,"INCLINATION":42.9995,"RA_OF_ASC_NODE":242.2677,"ARG_OF_PERICENTER":213.3292,"MEAN_ANOMALY":146.7516,"EPHEMERIS_TYPE":0,"CLASSIFICATION_TYPE":"U","NORAD_CAT_ID":63283,"ELEMENT_SET_NO":999,"REV_AT_EPOCH":5617,"BSTAR":0.0012078497,"MEAN_MOTION_DOT":0.00033117,"MEAN_MOTION_DDOT":0}]
