TRANSPORTER-12 OBJECT BT
1 62674U 25009BT  26068.71416991  .00013824  00000+0  51029-3 0  9998
2 62674  97.4094 151.5992 0003682 313.5044  46.5889 15.27872239121360
STARLINK-33669          
1 63283U 25053U   26068.52942742  .00033117  00000+0  12078-2 0  9998
2 63283  42.9995 242.2677 0000695 213.3292 146.7516 15.27572833 56176
